STARLINK-34746          
1 64847U 25152F   25220.50002315  .00126531  00000+0  18367-2 0  9995
2 64847  97.6024  73.5842 0001779  79.6909 298.2262 15.55373975  3220
STARLINK-34748          
1 64848U 25152G   25220.50002315  .00128155  00000+0  18601-2 0  9991
2 64848  97.6023  73.5851 0001724  77.8760 301.9659 15.55370674  3220
STARLINK-34756          
1 64849U 25152H   25220.50002315  .00134712  00000+0  17579-2 0  9991
2 64849  97.6016  73.5875 0001623  69.5505 316.3024 15.58226407  3225
STARLINK-34757          
1 64850U 25152J   25220.50002315  .00131111  00000+0  19023-2 0  9999
2 64850  97.6022  73.5875 0001592  82.7066 300.9786 15.55370349  3224
STARLINK-34722          
1 64851U 25152K   25220.50002315  .00130917  00000+0  18994-2 0  9999
2 64851  97.6022  73.5877 0001684  86.2047 299.3948 15.55372072  3223
STARLINK-34564          
1 64852U 25152L   25220.50002315  .00131840  00000+0  19127-2 0  9995
2 64852  97.6023  73.5887 0001434  80.4323 307.0909 15.55370379  3224
STARLINK-34676          
1 64853U 25152M   25220.50002315  .00138182  00000+0  20037-2 0  9994
2 64853  97.6022  73.5901 0001475  77.0479 312.4112 15.55361273  3229
STARLINK-34682          
1 64854U 25152N   25220.50002315  .00137897  00000+0  19989-2 0  9991
2 64854  97.6024  73.5907 0001719  84.4280 306.9334 15.55371138  3226
STARLINK-34631          
1 64855U 25152P   25220.50002315  .00132653  00000+0  19242-2 0  9999
2 64855  97.6024  73.5912 0001743  79.6267 313.6552 15.55371409  3229
STARLINK-34578          
1 64856U 25152Q   25220.50002315  .00127117  00000+0  18451-2 0  9990
2 64856  97.6026  73.5920 0001591  80.1805 315.0225 15.55373634  3222
STARLINK-34683          
1 64857U 25152R   25220.50002315  .00124332  00000+0  18055-2 0  9997
2 64857  97.6023  73.5931 0001479  80.1611 316.9688 15.55371311  3225
STARLINK-34654          
1 64858U 25152S   25220.58335648  .00103343  00000+0  15042-2 0  9996
2 64858  97.6023  73.6826 0001194  77.1387  68.2366 15.55384571  3233
STARLINK-34575          
1 64859U 25152T   25220.50002315  .00129128  00000+0  18740-2 0  9998
2 64859  97.6023  73.5946 0001253  72.0974 328.8703 15.55370795  3220
STARLINK-34570          
1 64860U 25152U   25220.50002315  .00131820  00000+0  19125-2 0  9990
2 64860  97.6023  73.5957 0001513  84.4822 318.4078 15.55368938  3228
STARLINK-34651          
1 64861U 25152V   25220.50002315  .00131863  00000+0  19131-2 0  9995
2 64861  97.6022  73.5966 0001564  84.1142 320.6963 15.55369227  3226
STARLINK-34684          
1 64862U 25152W   25220.50002315  .00127599  00000+0  18522-2 0  9990
2 64862  97.6021  73.5976 0001236  79.7430 326.9918 15.55370564  3228
STARLINK-34690          
1 64863U 25152X   25220.50002315  .00125036  00000+0  18155-2 0  9997
2 64863  97.6022  73.5985 0001503  80.6079 328.0463 15.55372041  3227
STARLINK-34628          
1 64864U 25152Y   25220.50002315  .00129823  00000+0  18840-2 0  9997
2 64864  97.6024  73.5991 0001247  74.0633 336.5089 15.55369510  3220
STARLINK-34544          
1 64865U 25152Z   25220.50002315  .00140074  00000+0  20306-2 0  9999
2 64865  97.6023  73.6008 0001339  73.0740 339.4268 15.55361732  3229
O3B MPOWER A            
1 64866U 25153A   25216.04933964  .00000045  00000+0 -10540-2 0  9991
2 64866   8.7040  72.7484 1866856 214.4291 131.9558  7.18924737   893
O3B MPOWER B            
1 64867U 25153B   25215.73691733  .00000047  00000+0 -44399-3 0  9994
2 64867   9.0893  73.3062 1896449 214.2066 132.0093  7.24232134   865
FALCON 9 R/B            
1 64868U 25153C   25220.04867112  .00000053  00000+0  10120-2 0  9991
2 64868   9.7229  67.0689 1940477 227.4335 114.5004  7.32307291  1186
LIDE                    
1 64869U 25154A   25220.49822032  .00002494  00000+0  25399-3 0  9990
2 64869  97.7141 286.2463 0005955 178.0095 182.1148 14.91601377  2353
TRACERS 1               
1 64870U 25154B   25220.49222995  .00001014  00000+0  10510-3 0  9990
2 64870  97.7135 286.2534 0004880 204.1007 155.9985 14.92141915  2341
2025-154C               
1 64871U 25154C   25217.13863346  .00002672  00000+0  26708-3 0  9996
2 64871  97.7128 282.9687 0005071 213.9644 146.1251 14.92297413  1841
SKYCRAFT-4A             
1 64872U 25154D   25220.42406510  .00003741  00000+0  37188-3 0  9991
2 64872  97.7120 286.1867 0004608 211.8217 148.2724 14.92275913  2321
TRACERS 2               
1 64873U 25154E   25220.42245854  .00000987  00000+0  10181-3 0  9997
2 64873  97.7139 286.1917 0005655 215.3355 144.7490 14.92400584  2339
PEXT (BARD)             
1 64874U 25154F   25220.23097246  .00003428  00000+0  17424-3 0  9997
2 64874  97.4405 285.9192 0001537 320.4831  39.6290 15.17525544  2339
REAL                    
1 64875U 25154G   25219.76077529  .00011965  00000+0  58280-3 0  9996
2 64875  97.4463 285.4859 0001946 116.7856 243.3577 15.18502710  2261
IONOSFERA-M 3           
1 64876U 25155A   25220.52498631  .00035002  00000+0  15830-1 0  9995
2 64876  98.5547 186.0471 0002395  63.2369 296.9054 14.21849419  1971
IONOSFERA-M 4           
1 64877U 25155B   25220.52798669  .00000079  00000+0  55760-4 0  9995
2 64877  98.5557 186.0433 0001807  67.4215 292.7153 14.21189922  1974
INNOSAT 16 (RS92S7)     
1 64878U 25155C   25219.92447507  .00003314  00000+0  15132-3 0  9993
2 64878  97.4110 184.9648 0010949 197.2763 162.8101 15.21240098 32988
GEOSCAN 6 (RS92S6)      
1 64879U 25155D   25219.85302944  .00007796  00000+0  34468-3 0  9992
2 64879  97.4122 184.9126 0008885 189.9751 170.1310 15.21938891 32972
GEOSCAN 1 (RS92S1)      
1 64880U 25155E   25219.91862403  .00008226  00000+0  36324-3 0  9994
2 64880  97.4126 184.9787 0008839 190.2109 169.8949 15.21963348 32981
239ALFEROV (RS61S)      
1 64881U 25155F   25219.91773918  .00009613  00000+0  42243-3 0  9995
2 64881  97.4139 184.9824 0008652 189.7899 170.3170 15.22082207 32980
2025-155G               
1 64882U 25155G   25219.91728424  .00006756  00000+0  29781-3 0  9995
2 64882  97.4142 184.9693 0008074 189.1532 170.9559 15.22096785 32988
2025-155H               
1 64883U 25155H   25219.85141562  .00006942  00000+0  30578-3 0  9994
2 64883  97.4140 184.9040 0008028 189.2993 170.8096 15.22111752 32970
2025-155J               
1 64884U 25155J   25220.11428278  .00007054  00000+0  31065-3 0  9995
2 64884  97.4137 185.1632 0007976 189.1305 170.9787 15.22115962 33015
2025-155K               
1 64885U 25155K   25220.11294810  .00016778  00000+0  72737-3 0  9993
2 64885  97.4102 185.1673 0009876 177.8784 182.2496 15.22396767 33016
2025-155L               
1 64886U 25155L   25220.11289264  .00013788  00000+0  59879-3 0  9991
2 64886  97.4102 185.1681 0009618 177.8471 182.2809 15.22385092 33010
2025-155M               
1 64887U 25155M   25220.11298966  .00012050  00000+0  52446-3 0  9995
2 64887  97.4118 185.1715 0009282 178.3519 181.7749 15.22344737 33010
2025-155N               
1 64888U 25155N   25220.11263777  .00014624  00000+0  63428-3 0  9999
2 64888  97.4110 185.1698 0009513 177.4489 182.6798 15.22414382 33014
2025-155P               
1 64889U 25155P   25220.11344774  .00004504  00000+0  19912-3 0  9992
2 64889  97.4141 185.1705 0007676 184.7469 175.3696 15.22182475 33016
GEOSCAN 2 (RS92S2)      
1 64890U 25155Q   25220.11219102  .00007904  00000+0  34504-3 0  9991
2 64890  97.4123 185.1740 0008550 175.3888 184.7429 15.22371118 33012
2025-155R               
1 64891U 25155R   25220.11135220  .00009354  00000+0  40647-3 0  9996
2 64891  97.4134 185.1713 0007031 193.1857 166.9196 15.22486035 33010
2025-155S               
1 64892U 25155S   25220.11129748  .00009394  00000+0  40810-3 0  9991
2 64892  97.4136 185.1720 0007087 194.2573 165.8464 15.22493411 33011
GEOSCAN 3 (RS92S3)      
1 64893U 25155T   25220.11056799  .00010032  00000+0  43444-3 0  9994
2 64893  97.4135 185.1726 0006870 195.8753 164.2269 15.22582741 33014
INNOSAT 3 (RS92S0)      
1 64894U 25155U   25220.10995557  .00011274  00000+0  48651-3 0  9992
2 64894  97.4135 185.1737 0006786 197.7730 162.3270 15.22670760 33019
2025-155V               
1 64895U 25155V   25219.98283519  .00006972  00000+0  30698-3 0  9996
2 64895  97.4144 185.0347 0008028 188.5416 171.5685 15.22124623 32985
MICROCARB               
1 64899U 25156A   25220.13881419  .00000504  00000+0  88638-4 0  9996
2 64899  98.0144 297.4620 0016401 187.6430 172.4529 14.71753487  1913
CO3D 3                  
1 64900U 25156B   25220.10011034  .00005627  00000+0  24543-3 0  9999
2 64900  97.4550 298.1893 0004055 147.6023 212.5463 15.22557150  1960
CO3D 4                  
1 64901U 25156C   25220.10055279  .00005878  00000+0  25627-3 0  9991
2 64901  97.4576 298.1958 0004270 145.0852 215.0665 15.22553191  1965
CO3D 2                  
1 64902U 25156D   25220.49879002  .00005289  00000+0  23815-3 0  9995
2 64902  97.4404 298.5665 0005509 152.7164 207.4362 15.21489898  2020
CO3D 1                  
1 64903U 25156E   25220.49923417  .00005289  00000+0  23666-3 0  9990
2 64903  97.4468 298.5734 0005575 146.2444 213.9148 15.21707127  2022
STARLINK-34647          
1 64904U 25157A   25220.50002315 -.01161645  00000+0 -80007-2 0  9992
2 64904  53.1571 270.1095 0000815  87.1031 284.5403 15.76631637  3289
STARLINK-34273          
1 64905U 25157B   25220.50002315 -.01168110  00000+0 -80659-2 0  9990
2 64905  53.1573 270.1053 0000691  78.3540 295.3717 15.76590689  3295
STARLINK-34713          
1 64906U 25157C   25220.50002315 -.01162699  00000+0 -80503-2 0  9995
2 64906  53.1538 270.1005 0000750  88.3614 287.5416 15.76516631  3231
STARLINK-34712          
1 64907U 25157D   25220.50002315 -.01189648  00000+0 -82858-2 0  9994
2 64907  53.1572 270.0959 0000728  74.6825 303.4159 15.76448310  3278
STARLINK-34702          
1 64908U 25157E   25220.50002315 -.01198537  00000+0 -83824-2 0  9996
2 64908  53.1573 270.0916 0000645  83.1551 297.1061 15.76377396  3278
